STARLINK-36811          
1 67808U 26032M   26073.48986238  .00165258  00000+0  10860-2 0  9991
2 67808  97.2840 260.2841 0001619  39.5522 320.5861 15.75223248  5545
STARLINK-36795          
1 67809U 26032N   26073.50680074  .00235866  00000+0  15355-2 0  9991
2 67809  97.2840 260.2596 0001704  32.2236 327.9133 15.75241557  5546
STARLINK-36807          
1 67810U 26032P   26073.49092017  .00140638  00000+0  92746-3 0  9997
2 67810  97.2843 260.2811 0001326  86.9700 273.1717 15.75211520  5540
STARLINK-36733          
1 67811U 26032Q   26073.48139080  .00167655  00000+0  11015-2 0  9996
2 67811  97.2833 260.2935 0001233  76.1685 283.9718 15.75220086  5544
STARLINK-36377          
1 67812U 26032R   26073.47892256  .00151476  00000+0  99746-3 0  9999
2 67812  97.2837 260.2974 0001459  25.3819 334.7517 15.75214456  5543
STARLINK-36732          
1 67813U 26032S   26073.48386245  .00228934  00000+0  14919-2 0  9999
2 67813  97.2837 260.2895 0000243  10.8364 349.2907 15.75236411  5549
STARLINK-36767          
1 67814U 26032T   26073.50362285  .00157199  00000+0  10339-2 0  9997
2 67814  97.2837 260.2620 0001469  55.3867 304.7536 15.75225365  5549
STARLINK-36797          
1 67815U 26032U   26073.49480071  .00169854  00000+0  11141-2 0  9993
2 67815  97.2840 260.2756 0001629  74.4129 285.7316 15.75252331  5542
STARLINK-36343          
1 67816U 26032V   26073.47504244  .00323052  00000+0  20755-2 0  9994
2 67816  97.2835 260.3011 0001823 103.6516 256.4952 15.75305412  5543
STARLINK-36756          
1 67817U 26032W   26073.48598153  .00150920  00000+0  99388-3 0  9999
2 67817  97.2835 260.2862 0001732  90.4406 269.7058 15.75214043  5539
STARLINK-36346          
1 67818U 26032X   26073.47080647  .00497346  00000+0  31184-2 0  9998
2 67818  97.2836 260.3077 0001831 121.4599 238.6846 15.75386678  5543
STARLINK-36788          
1 67819U 26032Y   26073.49691936  .00157531  00000+0  10352-2 0  9993
2 67819  97.2839 260.2715 0001673  65.2164 294.9275 15.75245403  5543
